OBJECT_NAME,OBJECT_ID,EPOCH,MEAN_MOTION,ECCENTRICITY,INCLINATION,RA_OF_ASC_NODE,ARG_OF_PERICENTER,MEAN_ANOMALY,EPHEMERIS_TYPE,CLASSIFICATION_TYPE,NORAD_CAT_ID,ELEMENT_SET_NO,REV_AT_EPOCH,BSTAR,MEAN_MOTION_DOT,MEAN_MOTION_DDOT
KUZGTU 1 (RS47S),2023-091AV,2026-06-11T16:05:30.318720,15.29734623,.0012341,97.5072,227.0945,115.0054,245.2469,0,U,57217,999,16353,.40636E-3,.11659E-3,0
SONATE-2,2024-043Q,2026-06-11T16:20:24.410976,15.58306667,.0006785,97.5519,312.7414,214.2461,145.8357,0,U,59112,999,12703,.47794E-3,.36244E-3,0
MESAT1,2024-125G,2026-06-11T14:24:04.518720,15.62604296,.000906,97.2312,19.9579,224.7831,135.2697,0,U,60209,999,10869,.5647E-3,.50616E-3,0
OOV-CUBE (TUBSAT-30),2024-128F,2026-06-11T14:22:54.209856,15.02751187,.0045327,61.9950,245.0577,132.4986,227.9949,0,U,60240,999,10527,.1598E-3,.1977E-4,0
COLIBRI-S (RS67S),2024-199M,2026-06-11T16:41:06.860256,15.47497977,.0006354,97.3007,36.5008,305.7088,54.3570,0,U,61746,999,13656,.40919E-3,.20966E-3,0
HORS 3 (RS81S),2024-199U,2026-06-11T16:23:54.770784,15.54591666,.0003904,97.2992,38.4163,312.3060,47.7862,0,U,61753,999,13670,.51645E-3,.34115E-3,0
HORS 4 (RS82S),2024-199V,2026-06-11T15:50:45.064320,15.59171194,.0003009,97.2940,39.5591,296.4131,63.6817,0,U,61754,999,13678,.58311E-3,.45725E-3,0
ARCTICSAT 1 (RS74S),2024-199AD,2026-06-11T12:18:28.078272,16.17145326,.00094935,97.2842,46.4180,212.9334,147.1363,0,U,61762,999,13721,.12655227E-2,.1934965E-1,.2353777E-5
SIT-2086,2024-199AF,2026-06-11T14:10:09.117120,15.52701713,.0004357,97.2948,38.8176,282.3912,77.6854,0,U,61764,999,13356,.55335814E-3,.34146E-3,0
HYPERVIEW 1G (RS66S),2024-199AP,2026-06-11T14:22:40.328832,15.74379761,.00026181,97.2896,42.0416,250.8791,109.2191,0,U,61772,999,13379,.83249335E-3,.121518E-2,0
ALTAIR (RS65S),2024-199AW,2026-06-11T13:52:25.972032,15.36921924,.00116351,97.3045,31.9666,333.7214,26.3439,0,U,61779,999,13625,.29803228E-3,.10705E-3,0
ASRTU-1 (AO-123),2024-199AY,2026-06-11T15:01:48.142560,15.35596437,.00128654,97.3015,31.3477,335.9422,24.1219,0,U,61781,999,13307,.21092931E-3,.7237E-4,0
SAMSAT-IONOSPHERE (RS75S),2024-199BB,2026-06-11T14:21:04.295232,15.57138226,.00060483,97.2962,38.3559,306.0953,53.9742,0,U,61784,999,13669,.58944623E-3,.42844E-3,0
RTU MIREA 1 (RS51S),2024-199BC,2026-06-11T15:13:47.372448,15.60483499,.0005522,97.2953,39.1968,298.0744,61.9955,0,U,61785,999,13360,.64565632E-3,.53301E-3,0
TEVEL2-4,2025-052D,2026-06-11T16:54:40.560768,15.34420215,.0004732,97.3917,59.0886,113.7416,246.4323,0,U,63213,999,6927,.53861E-3,.17902E-3,0
TEVEL2-5,2025-052E,2026-06-11T15:49:23.886336,15.34247244,.0004616,97.3921,58.9918,115.2111,244.9611,0,U,63214,999,6926,.53362E-3,.17637E-3,0
TEVEL2-6,2025-052F,2026-06-11T16:06:58.241088,15.34210437,.0004506,97.3921,58.9890,114.2026,245.9689,0,U,63215,999,6926,.5287E-3,.17453E-3,0
TEVEL2-1,2025-052H,2026-06-11T16:46:01.569792,15.33685523,.0004481,97.3892,58.6467,124.0183,236.1485,0,U,63217,999,6925,.50495E-3,.16389E-3,0
TEVEL2-3,2025-052J,2026-06-11T16:38:35.636064,15.33739822,.0004465,97.3895,58.6628,124.0241,236.1426,0,U,63218,999,6925,.51483E-3,.1674E-3,0
TEVEL2-2,2025-052K,2026-06-11T15:12:34.161408,15.33691849,.0004438,97.3892,58.5842,124.7997,235.3663,0,U,63219,999,6924,.51153E-3,.16607E-3,0
TEVEL2-9,2025-052AD,2026-06-11T16:03:50.232960,15.31729289,.000718,97.3955,58.0067,145.2035,214.9678,0,U,63237,999,6918,.5107E-3,.15595E-3,0
TEVEL2-7,2025-052AE,2026-06-11T15:27:08.309088,15.31438085,.0007384,97.3956,57.8996,146.6025,213.5683,0,U,63238,999,6917,.50453E-3,.15266E-3,0
TEVEL2-8,2025-052AF,2026-06-11T15:38:56.319936,15.31421974,.0007385,97.3954,57.8849,147.5513,212.6184,0,U,63239,999,6917,.51057E-3,.15443E-3,0
INNOSAT 16 (RS92S7),2025-155C,2026-06-11T14:57:11.306592,15.25397996,.00098666,97.4555,129.7686,195.2389,164.8553,0,U,64878,999,7982,.2026412E-3,.505E-4,0
GEOSCAN 6 (RS92S6),2025-155D,2026-06-11T14:56:50.354592,15.30047938,.00075965,97.4547,131.1533,180.8724,179.2504,0,U,64879,999,7991,.31981058E-3,.9233E-4,0
GEOSCAN 1 (RS92S1),2025-155E,2026-06-11T15:03:27.574272,15.30634689,.00075516,97.4543,131.3011,180.4484,179.6751,0,U,64880,999,7992,.33102364E-3,.9736E-4,0
239ALFEROV (RS61S),2025-155F,2026-06-11T14:31:05.925216,15.32791043,.00072494,97.4544,131.8213,177.1686,182.9598,0,U,64881,999,7995,.43405646E-3,.13687E-3,0
GEOSCAN 2 (RS92S2),2025-155Q,2026-06-11T16:29:54.267360,15.30907356,.0007421,97.4542,131.5117,166.3996,193.7446,0,U,64890,999,7994,.33189E-3,.9844E-4,0
GEOSCAN 5 (RS92S5),2025-155R,2026-06-11T15:50:56.902848,15.33111316,.0005953,97.4537,132.0126,180.1761,179.9480,0,U,64891,999,7997,.42854E-3,.13645E-3,0
GEOSCAN 4 (RS92S4),2025-155S,2026-06-11T17:02:57.268320,15.33263675,.0006001,97.4540,132.1098,180.1188,180.0053,0,U,64892,999,7998,.4248E-3,.1359E-3,0
